{
  "type": "FeatureCollection",
  "features": [
    {
      "type": "Feature",
      "properties": {
        "norad_id": 38867,
        "name": "INTELSAT 23 (IS-23)",
        "group": "intelsat",
        "lat": -0.018159057663566826,
        "lon": -133.27038136018533,
        "alt_km": 35779.17353488164,
        "timestamp": "2025-12-02T13:52:16.943336+00:00",
        "meta_object_name": "INTELSAT 23 (IS-23)",
        "meta_object_id": "2012-057A",
        "meta_epoch": "2025-12-02T04:58:15.680352",
        "meta_mean_motion": 1.00270501,
        "meta_eccentricity": 0.00017846,
        "meta_inclination": 0.0444,
        "meta_ra_of_asc_node": 123.8123,
        "meta_arg_of_pericenter": 88.6225,
        "meta_mean_anomaly": 240.4489,
        "meta_ephemeris_type": 0,
        "meta_classification_type": "U",
        "meta_norad_cat_id": 38867,
        "meta_element_set_no": 999,
        "meta_rev_at_epoch": 4798,
        "meta_bstar": 0,
        "meta_mean_motion_dot": -2.64e-06,
        "meta_mean_motion_ddot": 0,
        "tle_line1": "1 38867U 12057A   25336.20712593 -.00000264  00000+0  00000+0 0  9996",
        "tle_line2": "2 38867   0.0444 123.8123 0001784  88.6225 240.4489  1.00270501 47982"
      },
      "geometry": {
        "type": "Point",
        "coordinates": [
          -133.27038136018533,
          -0.018159057663566826
        ]
      }
    },
    {
      "type": "Feature",
      "properties": {
        "norad_id": 39360,
        "name": "FM-6",
        "group": "intelsat",
        "lat": 0.011616902834531557,
        "lon": 163.56370840303674,
        "alt_km": 35774.12379247056,
        "timestamp": "2025-12-02T13:52:16.943348+00:00",
        "meta_object_name": "FM-6",
        "meta_object_id": "2013-058A",
        "meta_epoch": "2025-12-02T02:57:32.706144",
        "meta_mean_motion": 1.00270916,
        "meta_eccentricity": 0.00029448,
        "meta_inclination": 0.004,
        "meta_ra_of_asc_node": 106.4225,
        "meta_arg_of_pericenter": 66.6497,
        "meta_mean_anomaly": 186.3941,
        "meta_ephemeris_type": 0,
        "meta_classification_type": "U",
        "meta_norad_cat_id": 39360,
        "meta_element_set_no": 999,
        "meta_rev_at_epoch": 4409,
        "meta_bstar": 0,
        "meta_mean_motion_dot": 4e-08,
        "meta_mean_motion_ddot": 0,
        "tle_line1": "1 39360U 13058A   25336.12329521  .00000004  00000+0  00000+0 0  9994",
        "tle_line2": "2 39360   0.0040 106.4225 0002944  66.6497 186.3941  1.00270916 44099"
      },
      "geometry": {
        "type": "Point",
        "coordinates": [
          163.56370840303674,
          0.011616902834531557
        ]
      }
    },
    {
      "type": "Feature",
      "properties": {
        "norad_id": 40271,
        "name": "INTELSAT 30 (IS-30)",
        "group": "intelsat",
        "lat": -0.014746638584533518,
        "lon": -175.2954787413158,
        "alt_km": 35785.9853760526,
        "timestamp": "2025-12-02T13:52:16.943359+00:00",
        "meta_object_name": "INTELSAT 30 (IS-30)",
        "meta_object_id": "2014-062A",
        "meta_epoch": "2025-12-02T01:21:41.954976",
        "meta_mean_motion": 1.00274289,
        "meta_eccentricity": 0.00015346,
        "meta_inclination": 0.0117,
        "meta_ra_of_asc_node": 354.2124,
        "meta_arg_of_pericenter": 95.5309,
        "meta_mean_anomaly": 266.8075,
        "meta_ephemeris_type": 0,
        "meta_classification_type": "U",
        "meta_norad_cat_id": 40271,
        "meta_element_set_no": 999,
        "meta_rev_at_epoch": 480,
        "meta_bstar": 0,
        "meta_mean_motion_dot": -1.3e-06,
        "meta_mean_motion_ddot": 0,
        "tle_line1": "1 40271U 14062A   25336.05673559 -.00000130  00000+0  00000+0 0  9999",
        "tle_line2": "2 40271   0.0117 354.2124 0001534  95.5309 266.8075  1.00274289  4809"
      },
      "geometry": {
        "type": "Point",
        "coordinates": [
          -175.2954787413158,
          -0.014746638584533518
        ]
      }
    },
    {
      "type": "Feature",
      "properties": {
        "norad_id": 40333,
        "name": "DIRECTV 14",
        "group": "intelsat",
        "lat": -0.027206285547029377,
        "lon": -179.511675950002,
        "alt_km": 35788.02334382742,
        "timestamp": "2025-12-02T13:52:16.943371+00:00",
        "meta_object_name": "DIRECTV 14",
        "meta_object_id": "2014-078B",
        "meta_epoch": "2025-12-02T04:45:09.435168",
        "meta_mean_motion": 1.00265293,
        "meta_eccentricity": 2.396e-05,
        "meta_inclination": 0.0174,
        "meta_ra_of_asc_node": 323.2952,
        "meta_arg_of_pericenter": 313.4959,
        "meta_mean_anomaly": 126.5812,
        "meta_ephemeris_type": 0,
        "meta_classification_type": "U",
        "meta_norad_cat_id": 40333,
        "meta_element_set_no": 999,
        "meta_rev_at_epoch": 4006,
        "meta_bstar": 0,
        "meta_mean_motion_dot": -1.04e-06,
        "meta_mean_motion_ddot": 0,
        "tle_line1": "1 40333U 14078B   25336.19802587 -.00000104  00000+0  00000+0 0  9996",
        "tle_line2": "2 40333   0.0174 323.2952 0000239 313.4959 126.5812  1.00265293 40064"
      },
      "geometry": {
        "type": "Point",
        "coordinates": [
          -179.511675950002,
          -0.027206285547029377
        ]
      }
    },
    {
      "type": "Feature",
      "properties": {
        "norad_id": 40663,
        "name": "DIRECTV 15",
        "group": "intelsat",
        "lat": 0.006405805414048041,
        "lon": 176.84716565166602,
        "alt_km": 35786.158985410606,
        "timestamp": "2025-12-02T13:52:16.943382+00:00",
        "meta_object_name": "DIRECTV 15",
        "meta_object_id": "2015-026A",
        "meta_epoch": "2025-12-01T15:02:03.106176",
        "meta_mean_motion": 1.00270344,
        "meta_eccentricity": 2.258e-05,
        "meta_inclination": 0.0414,
        "meta_ra_of_asc_node": 104.2594,
        "meta_arg_of_pericenter": 141.9125,
        "meta_mean_anomaly": 307.2149,
        "meta_ephemeris_type": 0,
        "meta_classification_type": "U",
        "meta_norad_cat_id": 40663,
        "meta_element_set_no": 999,
        "meta_rev_at_epoch": 3848,
        "meta_bstar": 0,
        "meta_mean_motion_dot": -8.1e-07,
        "meta_mean_motion_ddot": 0,
        "tle_line1": "1 40663U 15026A   25335.62642484 -.00000081  00000+0  00000+0 0  9995",
        "tle_line2": "2 40663   0.0414 104.2594 0000225 141.9125 307.2149  1.00270344 38487"
      },
      "geometry": {
        "type": "Point",
        "coordinates": [
          176.84716565166602,
          0.006405805414048041
        ]
      }
    },
    {
      "type": "Feature",
      "properties": {
        "norad_id": 40664,
        "name": "SKY MEXICO-1",
        "group": "intelsat",
        "lat": -0.03333325858302416,
        "lon": -159.06064850866116,
        "alt_km": 35781.210172422885,
        "timestamp": "2025-12-02T13:52:16.943394+00:00",
        "meta_object_name": "SKY MEXICO-1",
        "meta_object_id": "2015-026B",
        "meta_epoch": "2025-12-02T04:54:21.818880",
        "meta_mean_motion": 1.00270937,
        "meta_eccentricity": 0.00026585,
        "meta_inclination": 0.0115,
        "meta_ra_of_asc_node": 310.0076,
        "meta_arg_of_pericenter": 313.8749,
        "meta_mean_anomaly": 162.2655,
        "meta_ephemeris_type": 0,
        "meta_classification_type": "U",
        "meta_norad_cat_id": 40664,
        "meta_element_set_no": 999,
        "meta_rev_at_epoch": 3847,
        "meta_bstar": 0,
        "meta_mean_motion_dot": -2.14e-06,
        "meta_mean_motion_ddot": 0,
        "tle_line1": "1 40664U 15026B   25336.20441920 -.00000214  00000+0  00000+0 0  9991",
        "tle_line2": "2 40664   0.0115 310.0076 0002658 313.8749 162.2655  1.00270937 38470"
      },
      "geometry": {
        "type": "Point",
        "coordinates": [
          -159.06064850866116,
          -0.03333325858302416
        ]
      }
    },
    {
      "type": "Feature",
      "properties": {
        "norad_id": 40874,
        "name": "INTELSAT 34 (IS-34)",
        "group": "intelsat",
        "lat": -0.03649569437370539,
        "lon": -135.76733385290365,
        "alt_km": 35784.56068019796,
        "timestamp": "2025-12-02T13:52:16.943406+00:00",
        "meta_object_name": "INTELSAT 34 (IS-34)",
        "meta_object_id": "2015-039A",
        "meta_epoch": "2025-12-01T18:41:08.783232",
        "meta_mean_motion": 1.00270951,
        "meta_eccentricity": 8.486e-05,
        "meta_inclination": 0.0157,
        "meta_ra_of_asc_node": 294.6924,
        "meta_arg_of_pericenter": 230.7347,
        "meta_mean_anomaly": 130.2562,
        "meta_ephemeris_type": 0,
        "meta_classification_type": "U",
        "meta_norad_cat_id": 40874,
        "meta_element_set_no": 999,
        "meta_rev_at_epoch": 3764,
        "meta_bstar": 0,
        "meta_mean_motion_dot": -2.64e-06,
        "meta_mean_motion_ddot": 0,
        "tle_line1": "1 40874U 15039A   25335.77857388 -.00000264  00000+0  00000+0 0  9993",
        "tle_line2": "2 40874   0.0157 294.6924 0000848 230.7347 130.2562  1.00270951 37644"
      },
      "geometry": {
        "type": "Point",
        "coordinates": [
          -135.76733385290365,
          -0.03649569437370539
        ]
      }
    }
  ]
}